[{"OBJECT_NAME":"IRS-P6 (RESOURCESAT-1)","OBJECT_ID":"2003-046A","EPOCH":"2026-03-10T00:23:01.313952","MEAN_MOTION":14.36117534,"ECCENTRICITY":0.00629144,"INCLINATION":98.2042,"RA_OF_ASC_NODE":110.3286,"ARG_OF_PERICENTER":280.126,"MEAN_ANOMALY":140.7181,"EPHEMERIS_TYPE":0,"CLASSIFICATION_TYPE":"U","NORAD_CAT_ID":28051,"ELEMENT_SET_NO":999,"REV_AT_EPOCH":16629,"BSTAR":9.8466414e-5,"MEAN_MOTION_DOT":2.52e-6,"MEAN_MOTION_DDOT":0},{"OBJECT_NAME":"DMSP 5D-2 F13 DEB","OBJECT_ID":"1995-015HS","EPOCH":"2026-03-05T13:53:28.490208","MEAN_MOTION":14.44942731,"ECCENTRICITY":0.0024788,"INCLINATION":98.5976,"RA_OF_ASC_NODE":108.3404,"ARG_OF_PERICENTER":233.7422,"MEAN_ANOMALY":126.1478,"EPHEMERIS_TYPE":0,"CLASSIFICATION_TYPE":"U","NORAD_CAT_ID":42300,"ELEMENT_SET_NO":999,"REV_AT_EPOCH":48616,"BSTAR":0.0019805,"MEAN_MOTION_DOT":6.888e-5,"MEAN_MOTION_DDOT":0}]
